STARLINK-32458          
1 61962U 24210D   26068.48005889  .00027456  00000+0  10037-2 0  9993
2 61962  42.9997 166.6667 0001136 256.8221 103.2504 15.27575869 75047
BANDWAGON-4 OBJECT N    
1 66305U 25248N   26068.03100984  .00024115  00000+0  97341-3 0  9997
2 66305  45.4084 294.9612 0013521 206.7837 153.2354 15.24369076 17177
